TDRS 3                  
1 19548U 88091B   14342.29371823 -.00000305  00000-0  00000+0 0  4142
2 19548  14.4951  18.1200 0038637 294.5696 167.5354  1.00280541 83185
HST                     
1 20580U 90037B   14341.45579023  .00004263  00000-0  27101-3 0  1724
2 20580  28.4718 337.5016 0002925 343.0654 151.9427 15.06351895150867
TDRS 5                  
1 21639U 91054B   14342.49012575  .00000085  00000-0  00000+0 0  7021
2 21639  13.5192  31.6864 0012691 320.6041  93.6415  1.00278058 85526
TDRS 6                  
1 22314U 93003B   14342.03106073 -.00000296  00000-0  00000+0 0  7075
2 22314  12.9786  34.4915 0005482 267.7692  99.5671  1.00280559 80231
TDRS 7                  
1 23613U 95035B   14342.09533280 -.00000205  00000-0  00000+0 0  8964
2 23613  14.3389  25.3252 0018638   3.8633 166.7763  1.00271084 70986
TRMM                    
1 25063U 97074A   14341.67581270  .00052096  00000-0  50615-3 0  8173
2 25063  34.9545  67.5845 0002508 128.4741 358.3597 15.65168987971783
ISS (ZARYA)             
1 25544U 98067A   14342.56591559  .00015726  00000-0  26421-3 0  5275
2 25544  51.6477 314.9326 0007691 108.9823 358.0210 15.51922857918387
LANDSAT 7               
1 25682U 99020A   14342.16580402  .00000765  00000-0  17983-3 0  8676
2 25682  98.2229  49.5317 0000622 106.6518 253.4754 14.57113644832327
TERRA                   
1 25994U 99068A   14342.52251254  .00000746  00000-0  17548-3 0  8973
2 25994  98.2104  54.7566 0000751  93.8087 266.3201 14.57122494796456
TDRS 8                  
1 26388U 00034A   14340.78186028 -.00000233  00000-0  00000+0 0  3482
2 26388   5.8367  64.8794 0005933 170.8745 210.3071  1.00275916 52965
EO-1                    
1 26619U 00075A   14342.50027022  .00001614  00000-0  31830-3 0  2193
2 26619  97.9591  33.5075 0010732 139.7952 220.4065 14.63730663748667
TIMED                   
1 26998U 01055B   14341.98241348  .00001113  00000-0  12893-3 0    35
2 26998  74.0729 349.2132 0002870 280.3459  79.7397 14.86818262704354
TDRS 9                  
1 27389U 02011A   14341.36832983 -.00000270  00000-0  10000-3 0  5796
2 27389   3.3369  94.4016 0006419 288.8234 144.0893  1.00264445 48236
AQUA                    
1 27424U 02022A   14342.00511755  .00000845  00000-0  19773-3 0  2094
2 27424  98.2202 280.6136 0001621  90.7517 334.7621 14.57094142669980
TDRS 10                 
1 27566U 02055A   14342.52877488  .00000076  00000-0  00000+0 0  2772
2 27566   3.3731  62.6068 0010927 196.0815 194.3829  1.00270398 44040
SORCE                   
1 27651U 03004A   14341.71904133  .00003608  00000-0  41116-3 0  5910
2 27651  39.9961  57.7887 0024857 241.7901 118.0377 14.86754175643336
AURA                    
1 28376U 04026A   14341.72358156  .00001356  00000-0  31097-3 0  4249
2 28376  98.2187 282.4975 0001044  33.8208 326.3030 14.57121836552998
SWIFT                   
1 28485U 04047A   14341.66116016  .00006090  00000-0  44043-3 0  8264
2 28485  20.5581  92.7017 0012511 124.9802 235.1807 15.00161565549264
THEMIS A                
1 30580U 07004A   14341.82906868 -.00000358  00000-0  00000+0 0  9566
2 30580  13.3966 345.3272 8302060 225.5507   0.7251  1.00270820 28372
THEMIS D                
1 30797U 07004D   14343.00299727 -.00000262  00000-0  00000+0 0  1428
2 30797   8.2893 323.2711 8278226 246.4846   0.6322  1.00278506 28244
THEMIS E                
1 30798U 07004E   14342.92163294 -.00000333  00000-0  00000+0 0  1191
2 30798   9.0999 336.5259 8279869 234.5961   0.5482  1.00283477 28390
AIM                     
1 31304U 07015A   14340.96408955  .00010413  00000-0  73836-3 0  5111
2 31304  97.8982 109.2611 0006297  40.1403 320.0287 15.04955221415626
C/NOFS                  
1 32765U 08017A   14340.48693443  .00053943  00000-0  11231-2 0  6421
2 32765  13.0002  82.4474 0146459  72.7633  10.2614 15.32843333363143
FGRST (GLAST)           
1 33053U 08029A   14341.87102200  .00002517  00000-0  13660-3 0  7112
2 33053  25.5821 154.9148 0013314  63.8752 296.3152 15.09116335357720
WISE                    
1 36119U 09071A   14342.00543946  .00008760  00000-0  38043-3 0  4337
2 36119  97.5099 352.0985 0002285   2.2991 357.8255 15.22547672275610
TDRS 11                 
1 39070U 13004A   14341.70665432  .00000086  00000-0  00000+0 0  5194
2 39070   6.4384 330.3675 0010089 261.5326 287.9702  1.00280273  6820
TDRS 12                 
1 39504U 14004A   14341.32249447 -.00000298  00000-0  00000+0 0  2327
2 39504   6.8063 337.8306 0003850 278.6455 246.7730  1.00265780  3235
